{
  "links" : {
    "next" : "https://api.nasa.gov/neo/rest/v1/feed?start_date=2015-06-16&end_date=2015-06-16&detailed=true&api_key=t0TVs3DtDT2H8Oy2Zy8m2eVrNsAVKAexjcZXUckd",
    "prev" : "https://api.nasa.gov/neo/rest/v1/feed?start_date=2015-06-14&end_date=2015-06-14&detailed=true&api_key=t0TVs3DtDT2H8Oy2Zy8m2eVrNsAVKAexjcZXUckd",
    "self" : "https://api.nasa.gov/neo/rest/v1/feed?start_date=2015-06-15&end_date=2015-06-15&detailed=true&api_key=t0TVs3DtDT2H8Oy2Zy8m2eVrNsAVKAexjcZXUckd"
  },
  "element_count" : 4,
  "near_earth_objects" : {
    "2015-06-15" : [ {
      "links" : {
        "self" : "https://api.nasa.gov/neo/rest/v1/neo/3720357?api_key=t0TVs3DtDT2H8Oy2Zy8m2eVrNsAVKAexjcZXUckd"
      },
      "neo_reference_id" : "3720357",
      "name" : "(2015 KS121)",
      "nasa_jpl_url" : "http://ssd.jpl.nasa.gov/sbdb.cgi?sstr=3720357",
      "absolute_magnitude_h" : 22.8,
      "estimated_diameter" : {
        "kilometers" : {
          "estimated_diameter_min" : 0.0732073989,
          "estimated_diameter_max" : 0.1636967205
        },
        "meters" : {
          "estimated_diameter_min" : 73.2073989347,
          "estimated_diameter_max" : 163.696720474
        },
        "miles" : {
          "estimated_diameter_min" : 0.0454889547,
          "estimated_diameter_max" : 0.1017163949
        },
        "feet" : {
          "estimated_diameter_min" : 240.181762721,
          "estimated_diameter_max" : 537.0627483999
        }
      },
      "is_potentially_hazardous_asteroid" : false,
      "close_approach_data" : [ {
        "close_approach_date" : "2015-06-15",
        "epoch_date_close_approach" : 1434351600000,
        "relative_velocity" : {
          "kilometers_per_second" : "14.4749272013",
          "kilometers_per_hour" : "52109.737924531",
          "miles_per_hour" : "32378.9646564954"
        },
        "miss_distance" : {
          "astronomical" : "0.1525636086",
          "lunar" : "59.347240448",
          "kilometers" : "22823190",
          "miles" : "14181673"
        },
        "orbiting_body" : "Earth"
      } ],
      "orbital_data" : {
        "orbit_id" : "8",
        "orbit_determination_date" : "2017-04-06 08:33:28",
        "orbit_uncertainty" : "7",
        "minimum_orbit_intersection" : ".143295",
        "jupiter_tisserand_invariant" : "4.064",
        "epoch_osculation" : "2458000.5",
        "eccentricity" : ".3632985011004107",
        "semi_major_axis" : "1.670373418823779",
        "inclination" : "25.94332986199105",
        "ascending_node_longitude" : "75.86215592527014",
        "orbital_period" : "788.53101934553",
        "perihelion_distance" : "1.063529259487132",
        "perihelion_argument" : "230.2415592451659",
        "aphelion_distance" : "2.277217578160426",
        "perihelion_time" : "2458022.135293051654",
        "mean_anomaly" : "350.1225122315924",
        "mean_motion" : ".4565451341391681",
        "equinox" : "J2000"
      }
    }, {
      "links" : {
        "self" : "https://api.nasa.gov/neo/rest/v1/neo/2388188?api_key=t0TVs3DtDT2H8Oy2Zy8m2eVrNsAVKAexjcZXUckd"
      },
      "neo_reference_id" : "2388188",
      "name" : "388188 (2006 DP14)",
      "nasa_jpl_url" : "http://ssd.jpl.nasa.gov/sbdb.cgi?sstr=2388188",
      "absolute_magnitude_h" : 18.9,
      "estimated_diameter" : {
        "kilometers" : {
          "estimated_diameter_min" : 0.4411182,
          "estimated_diameter_max" : 0.9863702813
        },
        "meters" : {
          "estimated_diameter_min" : 441.1181999969,
          "estimated_diameter_max" : 986.3702813054
        },
        "miles" : {
          "estimated_diameter_min" : 0.2740980571,
          "estimated_diameter_max" : 0.6129018881
        },
        "feet" : {
          "estimated_diameter_min" : 1447.2382352778,
          "estimated_diameter_max" : 3236.1230737181
        }
      },
      "is_potentially_hazardous_asteroid" : true,
      "close_approach_data" : [ {
        "close_approach_date" : "2015-06-15",
        "epoch_date_close_approach" : 1434351600000,
        "relative_velocity" : {
          "kilometers_per_second" : "18.8237354381",
          "kilometers_per_hour" : "67765.447577115",
          "miles_per_hour" : "42106.8138014579"
        },
        "miss_distance" : {
          "astronomical" : "0.3414146734",
          "lunar" : "132.8103027344",
          "kilometers" : "51074908",
          "miles" : "31736476"
        },
        "orbiting_body" : "Earth"
      } ],
      "orbital_data" : {
        "orbit_id" : "75",
        "orbit_determination_date" : "2017-04-06 09:22:03",
        "orbit_uncertainty" : "0",
        "minimum_orbit_intersection" : ".0158613",
        "jupiter_tisserand_invariant" : "4.442",
        "epoch_osculation" : "2458000.5",
        "eccentricity" : ".7764687823449055",
        "semi_major_axis" : "1.365744528584471",
        "inclination" : "11.78492560218144",
        "ascending_node_longitude" : "317.2586066299556",
        "orbital_period" : "582.9786240415252",
        "perihelion_distance" : ".3052865374802698",
        "perihelion_argument" : "59.21845898892936",
        "aphelion_distance" : "2.426202519688672",
        "perihelion_time" : "2457821.039261982531",
        "mean_anomaly" : "110.8202994449537",
        "mean_motion" : ".6175183534248375",
        "equinox" : "J2000"
      }
    }, {
      "links" : {
        "self" : "https://api.nasa.gov/neo/rest/v1/neo/3418110?api_key=t0TVs3DtDT2H8Oy2Zy8m2eVrNsAVKAexjcZXUckd"
      },
      "neo_reference_id" : "3418110",
      "name" : "(2008 NP3)",
      "nasa_jpl_url" : "http://ssd.jpl.nasa.gov/sbdb.cgi?sstr=3418110",
      "absolute_magnitude_h" : 23.3,
      "estimated_diameter" : {
        "kilometers" : {
          "estimated_diameter_min" : 0.058150704,
          "estimated_diameter_max" : 0.130028927
        },
        "meters" : {
          "estimated_diameter_min" : 58.1507039646,
          "estimated_diameter_max" : 130.0289270043
        },
        "miles" : {
          "estimated_diameter_min" : 0.0361331611,
          "estimated_diameter_max" : 0.0807962044
        },
        "feet" : {
          "estimated_diameter_min" : 190.7831555951,
          "estimated_diameter_max" : 426.6041048727
        }
      },
      "is_potentially_hazardous_asteroid" : false,
      "close_approach_data" : [ {
        "close_approach_date" : "2015-06-15",
        "epoch_date_close_approach" : 1434351600000,
        "relative_velocity" : {
          "kilometers_per_second" : "7.2485695616",
          "kilometers_per_hour" : "26094.8504218492",
          "miles_per_hour" : "16214.3252523985"
        },
        "miss_distance" : {
          "astronomical" : "0.25742652",
          "lunar" : "100.138923645",
          "kilometers" : "38510460",
          "miles" : "23929292"
        },
        "orbiting_body" : "Earth"
      } ],
      "orbital_data" : {
        "orbit_id" : "13",
        "orbit_determination_date" : "2017-06-14 06:16:58",
        "orbit_uncertainty" : "0",
        "minimum_orbit_intersection" : ".0155604",
        "jupiter_tisserand_invariant" : "6.001",
        "epoch_osculation" : "2458000.5",
        "eccentricity" : ".3346203283451472",
        "semi_major_axis" : "1.005948040037898",
        "inclination" : "1.432604082672295",
        "ascending_node_longitude" : "77.608374056614",
        "orbital_period" : "368.5205834497108",
        "perihelion_distance" : ".669337376582259",
        "perihelion_argument" : "328.9734281980121",
        "aphelion_distance" : "1.342558703493536",
        "perihelion_time" : "2458051.791935322264",
        "mean_anomaly" : "309.8939881643417",
        "mean_motion" : ".9768789483345817",
        "equinox" : "J2000"
      }
    }, {
      "links" : {
        "self" : "https://api.nasa.gov/neo/rest/v1/neo/3775253?api_key=t0TVs3DtDT2H8Oy2Zy8m2eVrNsAVKAexjcZXUckd"
      },
      "neo_reference_id" : "3775253",
      "name" : "(2017 MF)",
      "nasa_jpl_url" : "http://ssd.jpl.nasa.gov/sbdb.cgi?sstr=3775253",
      "absolute_magnitude_h" : 26.582,
      "estimated_diameter" : {
        "kilometers" : {
          "estimated_diameter_min" : 0.0128278826,
          "estimated_diameter_max" : 0.0286840175
        },
        "meters" : {
          "estimated_diameter_min" : 12.8278825991,
          "estimated_diameter_max" : 28.6840174989
        },
        "miles" : {
          "estimated_diameter_min" : 0.0079708742,
          "estimated_diameter_max" : 0.0178234166
        },
        "feet" : {
          "estimated_diameter_min" : 42.0862303464,
          "estimated_diameter_max" : 94.1076719712
        }
      },
      "is_potentially_hazardous_asteroid" : false,
      "close_approach_data" : [ {
        "close_approach_date" : "2015-06-15",
        "epoch_date_close_approach" : 1434351600000,
        "relative_velocity" : {
          "kilometers_per_second" : "6.7505197367",
          "kilometers_per_hour" : "24301.8710522127",
          "miles_per_hour" : "15100.2375990818"
        },
        "miss_distance" : {
          "astronomical" : "0.0148176234",
          "lunar" : "5.7640557289",
          "kilometers" : "2216685",
          "miles" : "1377384.125"
        },
        "orbiting_body" : "Earth"
      } ],
      "orbital_data" : {
        "orbit_id" : "5",
        "orbit_determination_date" : "2017-07-12 06:17:47",
        "orbit_uncertainty" : "5",
        "minimum_orbit_intersection" : ".00256097",
        "jupiter_tisserand_invariant" : "4.328",
        "epoch_osculation" : "2458000.5",
        "eccentricity" : ".3687747375627365",
        "semi_major_axis" : "1.574127587870402",
        "inclination" : "1.372160116453749",
        "ascending_node_longitude" : "263.2319877657364",
        "orbital_period" : "721.3704074035946",
        "perihelion_distance" : ".9936290997632313",
        "perihelion_argument" : "29.40960842754789",
        "aphelion_distance" : "2.154626075977573",
        "perihelion_time" : "2457945.395039761790",
        "mean_anomaly" : "27.50013790717736",
        "mean_motion" : ".4990501361093206",
        "equinox" : "J2000"
      }
    } ]
  }
}